{
  "type": "FeatureCollection",
  "features": [
    {
      "type": "Feature",
      "properties": {
        "norad_id": 66337,
        "name": "STARLINK-34783",
        "group": "last-30-days",
        "lat": 28.032017842617133,
        "lon": -179.63930882041205,
        "alt_km": 439.99938405804915,
        "timestamp": "2025-12-04T03:47:53.334233+00:00",
        "meta_object_name": "STARLINK-34783",
        "meta_object_id": "2025-253U",
        "meta_epoch": "2025-12-03T12:00:02.998944",
        "meta_mean_motion": 15.4064789,
        "meta_eccentricity": 0.0001054,
        "meta_inclination": 43.0006,
        "meta_ra_of_asc_node": 38.999,
        "meta_arg_of_pericenter": 263.6855,
        "meta_mean_anomaly": 177.544,
        "meta_ephemeris_type": 0,
        "meta_classification_type": "U",
        "meta_norad_cat_id": 66337,
        "meta_element_set_no": 999,
        "meta_rev_at_epoch": 549,
        "meta_bstar": 0.0013567,
        "meta_mean_motion_dot": 0.0005669,
        "meta_mean_motion_ddot": 0,
        "tle_line1": "1 66337U 25253U   25337.50003471  .00056690  00000+0  13567-2 0  9991",
        "tle_line2": "2 66337  43.0006  38.9990 0001054 263.6855 177.5440 15.40647890  5493"
      },
      "geometry": {
        "type": "Point",
        "coordinates": [
          -179.63930882041205,
          28.032017842617133
        ]
      }
    },
    {
      "type": "Feature",
      "properties": {
        "norad_id": 66338,
        "name": "STARLINK-35477",
        "group": "last-30-days",
        "lat": 42.30498471892252,
        "lon": 137.70696087487647,
        "alt_km": 437.71247412013963,
        "timestamp": "2025-12-04T03:47:53.334244+00:00",
        "meta_object_name": "STARLINK-35477",
        "meta_object_id": "2025-253V",
        "meta_epoch": "2025-12-03T00:00:02.000160",
        "meta_mean_motion": 15.40654364,
        "meta_eccentricity": 9.994e-05,
        "meta_inclination": 43.0008,
        "meta_ra_of_asc_node": 41.9681,
        "meta_arg_of_pericenter": 249.6086,
        "meta_mean_anomaly": 257.669,
        "meta_ephemeris_type": 0,
        "meta_classification_type": "U",
        "meta_norad_cat_id": 66338,
        "meta_element_set_no": 999,
        "meta_rev_at_epoch": 546,
        "meta_bstar": 0.001271885,
        "meta_mean_motion_dot": 0.00053116,
        "meta_mean_motion_ddot": 0,
        "tle_line1": "1 66338U 25253V   25337.00002315  .00053116  00000+0  12719-2 0  9991",
        "tle_line2": "2 66338  43.0008  41.9681 0000999 249.6086 257.6690 15.40654364  5462"
      },
      "geometry": {
        "type": "Point",
        "coordinates": [
          137.70696087487647,
          42.30498471892252
        ]
      }
    },
    {
      "type": "Feature",
      "properties": {
        "norad_id": 66339,
        "name": "STARLINK-35443",
        "group": "last-30-days",
        "lat": -39.067806131596925,
        "lon": -84.47997110688495,
        "alt_km": 451.41890213561965,
        "timestamp": "2025-12-04T03:47:53.334254+00:00",
        "meta_object_name": "STARLINK-35443",
        "meta_object_id": "2025-253W",
        "meta_epoch": "2025-12-03T12:00:02.998944",
        "meta_mean_motion": 15.43003839,
        "meta_eccentricity": 8.79e-05,
        "meta_inclination": 43.0005,
        "meta_ra_of_asc_node": 38.7293,
        "meta_arg_of_pericenter": 291.4875,
        "meta_mean_anomaly": 260.2146,
        "meta_ephemeris_type": 0,
        "meta_classification_type": "U",
        "meta_norad_cat_id": 66339,
        "meta_element_set_no": 999,
        "meta_rev_at_epoch": 549,
        "meta_bstar": -0.071008,
        "meta_mean_motion_dot": -0.0284512,
        "meta_mean_motion_ddot": 0,
        "tle_line1": "1 66339U 25253W   25337.50003471 -.02845120  00000+0 -71008-1 0  9994",
        "tle_line2": "2 66339  43.0005  38.7293 0000879 291.4875 260.2146 15.43003839  5498"
      },
      "geometry": {
        "type": "Point",
        "coordinates": [
          -84.47997110688495,
          -39.067806131596925
        ]
      }
    },
    {
      "type": "Feature",
      "properties": {
        "norad_id": 66340,
        "name": "STARLINK-35218",
        "group": "last-30-days",
        "lat": -40.74340389539925,
        "lon": -32.75238600408502,
        "alt_km": 415.53255938613256,
        "timestamp": "2025-12-04T03:47:53.334264+00:00",
        "meta_object_name": "STARLINK-35218",
        "meta_object_id": "2025-253X",
        "meta_epoch": "2025-12-02T05:44:37.704192",
        "meta_mean_motion": 15.50658934,
        "meta_eccentricity": 0.0001723,
        "meta_inclination": 43.0002,
        "meta_ra_of_asc_node": 46.0659,
        "meta_arg_of_pericenter": 259.1035,
        "meta_mean_anomaly": 100.9632,
        "meta_ephemeris_type": 0,
        "meta_classification_type": "U",
        "meta_norad_cat_id": 66340,
        "meta_element_set_no": 999,
        "meta_rev_at_epoch": 530,
        "meta_bstar": 0.0021881,
        "meta_mean_motion_dot": 0.00130561,
        "meta_mean_motion_ddot": 0,
        "tle_line1": "1 66340U 25253X   25336.23932528  .00130561  00000+0  21881-2 0  9996",
        "tle_line2": "2 66340  43.0002  46.0659 0001723 259.1035 100.9632 15.50658934  5303"
      },
      "geometry": {
        "type": "Point",
        "coordinates": [
          -32.75238600408502,
          -40.74340389539925
        ]
      }
    },
    {
      "type": "Feature",
      "properties": {
        "norad_id": 66341,
        "name": "STARLINK-35522",
        "group": "last-30-days",
        "lat": -42.44319201282581,
        "lon": -44.064550408092366,
        "alt_km": 416.0784482881363,
        "timestamp": "2025-12-04T03:47:53.334275+00:00",
        "meta_object_name": "STARLINK-35522",
        "meta_object_id": "2025-253Y",
        "meta_epoch": "2025-12-02T21:14:11.077152",
        "meta_mean_motion": 15.50667334,
        "meta_eccentricity": 0.00014747,
        "meta_inclination": 43.0006,
        "meta_ra_of_asc_node": 42.3125,
        "meta_arg_of_pericenter": 295.6812,
        "meta_mean_anomaly": 64.3896,
        "meta_ephemeris_type": 0,
        "meta_classification_type": "U",
        "meta_norad_cat_id": 66341,
        "meta_element_set_no": 999,
        "meta_rev_at_epoch": 540,
        "meta_bstar": 0.0026477102,
        "meta_mean_motion_dot": 0.00158674,
        "meta_mean_motion_ddot": 0,
        "tle_line1": "1 66341U 25253Y   25336.88485043  .00158674  00000+0  26477-2 0  9994",
        "tle_line2": "2 66341  43.0006  42.3125 0001474 295.6812  64.3896 15.50667334  5406"
      },
      "geometry": {
        "type": "Point",
        "coordinates": [
          -44.064550408092366,
          -42.44319201282581
        ]
      }
    },
    {
      "type": "Feature",
      "properties": {
        "norad_id": 66342,
        "name": "STARLINK-35535",
        "group": "last-30-days",
        "lat": -12.590919388900387,
        "lon": -131.0785045462072,
        "alt_km": 444.79795267353074,
        "timestamp": "2025-12-04T03:47:53.334286+00:00",
        "meta_object_name": "STARLINK-35535",
        "meta_object_id": "2025-253Z",
        "meta_epoch": "2025-12-03T12:00:02.998944",
        "meta_mean_motion": 15.40634842,
        "meta_eccentricity": 0.0001444,
        "meta_inclination": 43.0004,
        "meta_ra_of_asc_node": 38.847,
        "meta_arg_of_pericenter": 257.3526,
        "meta_mean_anomaly": 246.1044,
        "meta_ephemeris_type": 0,
        "meta_classification_type": "U",
        "meta_norad_cat_id": 66342,
        "meta_element_set_no": 999,
        "meta_rev_at_epoch": 544,
        "meta_bstar": 0.001538,
        "meta_mean_motion_dot": 0.00064348,
        "meta_mean_motion_ddot": 0,
        "tle_line1": "1 66342U 25253Z   25337.50003471  .00064348  00000+0  15380-2 0  9991",
        "tle_line2": "2 66342  43.0004  38.8470 0001444 257.3526 246.1044 15.40634842  5448"
      },
      "geometry": {
        "type": "Point",
        "coordinates": [
          -131.0785045462072,
          -12.590919388900387
        ]
      }
    },
    {
      "type": "Feature",
      "properties": {
        "norad_id": 66343,
        "name": "STARLINK-35467",
        "group": "last-30-days",
        "lat": 12.606833710905144,
        "lon": -158.7437137854031,
        "alt_km": 442.1703323862248,
        "timestamp": "2025-12-04T03:47:53.334296+00:00",
        "meta_object_name": "STARLINK-35467",
        "meta_object_id": "2025-253AA",
        "meta_epoch": "2025-12-03T12:00:02.998944",
        "meta_mean_motion": 15.40647061,
        "meta_eccentricity": 0.0001025,
        "meta_inclination": 43.0006,
        "meta_ra_of_asc_node": 38.9368,
        "meta_arg_of_pericenter": 263.525,
        "meta_mean_anomaly": 202.5968,
        "meta_ephemeris_type": 0,
        "meta_classification_type": "U",
        "meta_norad_cat_id": 66343,
        "meta_element_set_no": 999,
        "meta_rev_at_epoch": 544,
        "meta_bstar": 0.0013361,
        "meta_mean_motion_dot": 0.00055821,
        "meta_mean_motion_ddot": 0,
        "tle_line1": "1 66343U 25253AA  25337.50003471  .00055821  00000+0  13361-2 0  9995",
        "tle_line2": "2 66343  43.0006  38.9368 0001025 263.5250 202.5968 15.40647061  5444"
      },
      "geometry": {
        "type": "Point",
        "coordinates": [
          -158.7437137854031,
          12.606833710905144
        ]
      }
    }
  ]
}